      2.10          N: GNSS NAV DATA                        RINEX VERSION / TYPE
fic2rin                                 07/26/2023 00:17:41 PGM / RUN BY / DATE
                                                            END OF HEADER
6  23  7 25  1 59 44.0  .574531964958D-03 -.409272615798D-11  .000000000000D+00
     .130000000000D+02 -.193125000000D+02  .355800534806D-08  .210431160036D+01
    -.873580574989D-06  .268617959227D-02  .861659646034D-05  .515370925903D+04
     .179984000000D+06 -.558793544769D-07  .125973586103D+01  .558793544769D-07
     .989203640325D+00  .228375000000D+03 -.761770478410D+00 -.757281543816D-08
     .746459664470D-10  .100000000000D+01  .227200000000D+04  .000000000000D+00
     .240000000000D+01  .000000000000D+00  .372529029846D-08  .130000000000D+02
     .172800000000D+06  .400000000000D+01
31 23  7 25 14  0  0.0 -.220690853894D-03 -.682121026330D-12  .000000000000D+00
     .250000000000D+02  .211875000000D+02  .440054044303D-08  .387913026706D+00
     .126287341118D-05  .103461948456D-01  .102091580629D-04  .515360033226D+04
     .223200000000D+06  .335276126862D-07 -.186983656524D+01  .238418579102D-06
     .954134565203D+00  .179000000000D+03  .556192086673D+00 -.804176354316D-08
    -.807176479283D-10  .100000000000D+01  .227200000000D+04  .000000000000D+00
     .240000000000D+01  .000000000000D+00 -.135041773319D-07  .250000000000D+02
     .216000000000D+06  .400000000000D+01
32 23  7 25 14  0  0.0 -.528091564775D-03 -.738964445191D-11  .000000000000D+00
     .210000000000D+02 -.384375000000D+02  .461090634847D-08 -.154524986090D+01
    -.205636024475D-05  .695401430130D-02  .722520053387D-05  .515376715469D+04
     .223200000000D+06  .203028321266D-06 -.294839206731D+01 -.409781932831D-07
     .960354439371D+00  .243156250000D+03 -.220367933952D+01 -.801747681723D-08
    -.226438003480D-09  .100000000000D+01  .227200000000D+04  .000000000000D+00
     .240000000000D+01  .000000000000D+00  .465661287308D-09  .210000000000D+02
     .216000000000D+06  .400000000000D+01
26 23  7 25 14  0  0.0  .235333107412D-03 -.125055521494D-11  .000000000000D+00
     .210000000000D+02  .711250000000D+02  .519985945216D-08 -.332665059395D+00
     .387057662010D-05  .800199923106D-02  .652112066746D-05  .515372645569D+04
     .223200000000D+06  .130385160446D-06 -.914651213774D+00  .596046447754D-07
     .933227739607D+00  .238375000000D+03  .461901201365D+00 -.860785855186D-08
     .216437586923D-09  .100000000000D+01  .227200000000D+04  .000000000000D+00
     .240000000000D+01  .000000000000D+00  .698491930962D-08  .210000000000D+02
     .216000000000D+06  .400000000000D+01
25 23  7 25 14  0  0.0  .458257738501D-03  .227373675443D-11  .000000000000D+00
     .200000000000D+02  .652500000000D+02  .480341436720D-08  .371522251164D+00
     .318884849548D-05  .110636714380D-01  .659376382828D-05  .515370380020D+04
     .223200000000D+06 -.165775418282D-06 -.857874088916D+00  .145286321640D-06
     .952485281601D+00  .251656250000D+03  .105110534966D+01 -.839642117322D-08
     .112147528538D-09  .100000000000D+01  .227200000000D+04  .000000000000D+00
     .240000000000D+01  .000000000000D+00  .558793544769D-08  .200000000000D+02
     .216000000000D+06  .400000000000D+01
29 23  7 25 14  0  0.0 -.606379471719D-03 -.909494701773D-12  .000000000000D+00
     .108000000000D+03 -.125000000000D+02  .441304096373D-08 -.218672843313D+01
    -.482425093651D-06  .263252889272D-02  .582449138165D-05  .515373633575D+04
     .223200000000D+06 -.670552253723D-07  .278294962891D+00  .000000000000D+00
     .975990216059D+00  .279906250000D+03  .248867453451D+01 -.804819238237D-08
    -.828605943335D-10  .100000000000D+01  .227200000000D+04  .000000000000D+00
     .240000000000D+01  .000000000000D+00 -.102445483208D-07  .108000000000D+03
     .216000000000D+06  .400000000000D+01
24 23  7 25 14  0  0.0 -.269117299467D-03 -.120508047985D-10  .000000000000D+00
     .600000000000D+02  .781250000000D+00  .483698719422D-08  .224897823358D+01
    -.931322574615D-07  .141070631798D-01  .962987542152D-05  .515364808273D+04
     .223200000000D+06 -.651925802231D-07 -.198180950877D+01 -.271946191788D-06
     .933725109810D+00  .179093750000D+03  .903764431976D+00 -.808676541767D-08
    -.421446126351D-10  .100000000000D+01  .227200000000D+04  .000000000000D+00
     .240000000000D+01  .000000000000D+00  .279396772385D-08  .600000000000D+02
     .216000000000D+06  .400000000000D+01
30 23  7 25 14  0  0.0 -.501648988575D-03  .284217094304D-11  .000000000000D+00
     .580000000000D+02  .421875000000D+01  .485698802733D-08  .118200480315D+01
     .348314642906D-06  .658746971749D-02  .102408230305D-04  .515379228210D+04
     .223200000000D+06 -.189989805222D-06 -.188487260110D+01 -.111758708954D-07
     .935202651219D+00  .170031250000D+03 -.254604616587D+01 -.816212569958D-08
    -.201079804352D-09  .100000000000D+01  .227200000000D+04  .000000000000D+00
     .240000000000D+01  .000000000000D+00  .372529029846D-08  .580000000000D+02
     .216000000000D+06  .400000000000D+01
21 23  7 25 14  0  0.0  .151713844389D-03 -.454747350886D-12  .000000000000D+00
     .770000000000D+02 -.347500000000D+02  .442518432669D-08 -.219187138600D+01
    -.144354999065D-05  .246887848480D-01  .933557748795D-05  .515359969139D+04
     .223200000000D+06 -.415369868279D-06  .116243931251D+01  .407919287682D-06
     .961724097886D+00  .201375000000D+03 -.730295880783D+00 -.786068457192D-08
    -.625026034843D-10  .100000000000D+01  .227200000000D+04  .000000000000D+00
     .340000000000D+01  .000000000000D+00 -.102445483208D-07  .770000000000D+02
     .216000000000D+06  .400000000000D+01
17 23  7 25 14  0  0.0  .721637159586D-03  .682121026330D-12  .000000000000D+00
     .390000000000D+02 -.543750000000D+01  .442411285349D-08 -.222662419286D+01
    -.931322574615D-08  .136081745150D-01  .476837158203D-05  .515355067444D+04
     .223200000000D+06  .163912773132D-06  .264078285498D+00  .203028321266D-06
     .973710154365D+00  .290718750000D+03 -.140729227094D+01 -.791997275580D-08
    -.335728270144D-10  .100000000000D+01  .227200000000D+04  .000000000000D+00
     .240000000000D+01  .000000000000D+00 -.111758708954D-07  .390000000000D+02
     .216000000000D+06  .400000000000D+01
19 23  7 25 14  0  0.0  .348662026227D-03  .511590769747D-11  .000000000000D+00
     .840000000000D+02 -.120312500000D+02  .455876131928D-08 -.687061582530D-01
    -.670552253723D-06  .948895234615D-02  .519491732121D-05  .515363193130D+04
     .223200000000D+06  .279396772385D-07  .308550374830D+00 -.115483999252D-06
     .972785835909D+00  .286375000000D+03  .236530698496D+01 -.829784563858D-08
    -.632169189527D-10  .100000000000D+01  .227200000000D+04  .000000000000D+00
     .240000000000D+01  .000000000000D+00 -.153668224812D-07  .840000000000D+02
     .216000000000D+06  .400000000000D+01
28 23  7 25 14  0  0.0  .809407792985D-04 -.204636307899D-11  .000000000000D+00
     .114000000000D+03  .122187500000D+02  .423553356983D-08 -.181771490506D+00
     .730156898499D-06  .623948057182D-03  .102203339338D-04  .515371911430D+04
     .223200000000D+06 -.521540641785D-07 -.192673595786D+01 -.186264514923D-08
     .961240015368D+00  .182593750000D+03  .163869308027D+01 -.783389774186D-08
    -.842892252703D-10  .100000000000D+01  .227200000000D+04  .000000000000D+00
     .240000000000D+01  .000000000000D+00 -.977888703346D-08  .370000000000D+03
     .216000000000D+06  .400000000000D+01
14 23  7 25 14  0  0.0  .133414287120D-03  .119371179608D-10  .000000000000D+00
     .225000000000D+03  .629375000000D+02  .488770359247D-08  .499779962802D+00
     .333040952682D-05  .341158569790D-02  .674091279507D-05  .515367833138D+04
     .223200000000D+06  .316649675369D-07 -.814460379853D+00  .409781932831D-07
     .948120883486D+00  .243906250000D+03 -.296473919230D+01 -.829677416538D-08
     .209294432239D-09  .100000000000D+01  .227200000000D+04  .000000000000D+00
     .240000000000D+01  .000000000000D+00 -.791624188423D-08  .225000000000D+03
     .216000000000D+06  .400000000000D+01
18 23  7 25 14  0  0.0 -.358595047146D-03 -.139834810398D-10  .000000000000D+00
     .460000000000D+02 -.188125000000D+02  .433839499728D-08  .210389770719D+01
    -.888481736183D-06  .350070709828D-02  .841729342937D-05  .515366902924D+04
     .223200000000D+06  .186264514923D-08  .126787287325D+01  .162050127983D-06
     .973901367998D+00  .225812500000D+03  .313060989120D+01 -.799676166865D-08
     .103575742917D-10  .100000000000D+01  .227200000000D+04  .000000000000D+00
     .240000000000D+01  .000000000000D+00 -.838190317154D-08  .558000000000D+03
     .216000000000D+06  .400000000000D+01
23 23  7 25 14  0  0.0  .472199171782D-04  .432009983342D-11  .000000000000D+00
     .980000000000D+02 -.150000000000D+01  .441232664826D-08  .106885212738D+01
     .186264514923D-08  .341067393310D-02  .666826963425D-05  .515366754723D+04
     .223200000000D+06  .391155481339D-07  .226801242602D+01  .409781932831D-07
     .974700652309D+00  .256031250000D+03 -.310481223203D+01 -.807247910830D-08
     .914323799542D-10  .100000000000D+01  .227200000000D+04  .000000000000D+00
     .240000000000D+01  .000000000000D+00 -.838190317154D-08  .866000000000D+03
     .216000000000D+06  .400000000000D+01
22 23  7 25 14  0  0.0  .517799984664D-03  .534328137292D-11  .000000000000D+00
     .600000000000D+01 -.387812500000D+02  .441804117201D-08 -.233067516435D+01
    -.193901360035D-05  .143772390438D-01  .745616853237D-05  .515365458870D+04
     .223200000000D+06  .182539224625D-06 -.285616312993D+01 -.540167093277D-07
     .963224773881D+00  .237531250000D+03 -.179766181944D+01 -.773782231136D-08
    -.171792870148D-09  .100000000000D+01  .227200000000D+04  .000000000000D+00
     .240000000000D+01  .630000000000D+02 -.838190317154D-08  .600000000000D+01
     .216000000000D+06  .400000000000D+01
